{"type": "FeatureCollection", "features": [{"type": "Feature", "properties": {"norad_id": 2807, "name": "OPS 7218 (TRANSIT 16)", "group": "nnss", "lat": -76.149274958151, "lon": -7.5949566058201325, "alt_km": 1093.1288796830986, "timestamp": "2025-12-21T07:34:34.786186+00:00", "meta": {"OBJECT_NAME": "OPS 7218 (TRANSIT 16)", "OBJECT_ID": "1967-048A", "EPOCH": "2025-12-20T21:36:28.480896", "MEAN_MOTION": 13.50723925, "ECCENTRICITY": 0.00221531, "INCLINATION": 89.6731, "RA_OF_ASC_NODE": 353.7455, "ARG_OF_PERICENTER": 92.3394, "MEAN_ANOMALY": 333.1085, "EPHEMERIS_TYPE": 0, "CLASSIFICATION_TYPE": "U", "NORAD_CAT_ID": 2807, "ELEMENT_SET_NO": 999, "REV_AT_EPOCH": 88386, "BSTAR": 0.00014898835, "MEAN_MOTION_DOT": 1.06e-06, "MEAN_MOTION_DDOT": 0}, "tle": {"line1": "1 02807U 67048A   25354.90032964  .00000106  00000+0  14899-3 0  9994", "line2": "2 02807  89.6731 353.7455 0022153  92.3394 333.1085 13.50723925883861"}}, "geometry": {"type": "Point", "coordinates": [-7.5949566058201325, -76.149274958151]}}, {"type": "Feature", "properties": {"norad_id": 2965, "name": "OPS 4947 (TRANSIT 17)", "group": "nnss", "lat": 72.23471711004012, "lon": 26.128568375922562, "alt_km": 1077.9683621197719, "timestamp": "2025-12-21T07:34:34.786206+00:00", "meta": {"OBJECT_NAME": "OPS 4947 (TRANSIT 17)", "OBJECT_ID": "1967-092A", "EPOCH": "2025-12-20T19:39:31.567104", "MEAN_MOTION": 13.53455563, "ECCENTRICITY": 0.00467504, "INCLINATION": 89.2487, "RA_OF_ASC_NODE": 23.8193, "ARG_OF_PERICENTER": 210.4496, "MEAN_ANOMALY": 324.1597, "EPHEMERIS_TYPE": 0, "CLASSIFICATION_TYPE": "U", "NORAD_CAT_ID": 2965, "ELEMENT_SET_NO": 999, "REV_AT_EPOCH": 87206, "BSTAR": 0.00018417572, "MEAN_MOTION_DOT": 1.36e-06, "MEAN_MOTION_DDOT": 0}, "tle": {"line1": "1 02965U 67092A   25354.81911536  .00000136  00000+0  18418-3 0  9993", "line2": "2 02965  89.2487  23.8193 0046750 210.4496 324.1597 13.53455563872060"}}, "geometry": {"type": "Point", "coordinates": [26.128568375922562, 72.23471711004012]}}, {"type": "Feature", "properties": {"norad_id": 3133, "name": "OPS 7034 (TRANSIT 18)", "group": "nnss", "lat": 15.998942498525254, "lon": 93.67138045659452, "alt_km": 1014.7318058146648, "timestamp": "2025-12-21T07:34:34.786217+00:00", "meta": {"OBJECT_NAME": "OPS 7034 (TRANSIT 18)", "OBJECT_ID": "1968-012A", "EPOCH": "2025-12-20T20:26:07.715616", "MEAN_MOTION": 13.51567469, "ECCENTRICITY": 0.00746309, "INCLINATION": 90.0284, "RA_OF_ASC_NODE": 273.6619, "ARG_OF_PERICENTER": 145.7558, "MEAN_ANOMALY": 280.5568, "EPHEMERIS_TYPE": 0, "CLASSIFICATION_TYPE": "U", "NORAD_CAT_ID": 3133, "ELEMENT_SET_NO": 999, "REV_AT_EPOCH": 57028, "BSTAR": 0.00015957272, "MEAN_MOTION_DOT": 1.16e-06, "MEAN_MOTION_DDOT": 0}, "tle": {"line1": "1 03133U 68012A   25354.85147819  .00000116  00000+0  15957-3 0  9996", "line2": "2 03133  90.0284 273.6619 0074630 145.7558 280.5568 13.51567469570287"}}, "geometry": {"type": "Point", "coordinates": [93.67138045659452, 15.998942498525254]}}, {"type": "Feature", "properties": {"norad_id": 4507, "name": "NNSS 19 (TRANSIT 19)", "group": "nnss", "lat": 53.813874861317366, "lon": 54.54663322421385, "alt_km": 1161.7342174957457, "timestamp": "2025-12-21T07:34:34.786228+00:00", "meta": {"OBJECT_NAME": "NNSS 19 (TRANSIT 19)", "OBJECT_ID": "1970-067A", "EPOCH": "2025-12-20T14:56:41.152992", "MEAN_MOTION": 13.51316588, "ECCENTRICITY": 0.0170239, "INCLINATION": 90.0051, "RA_OF_ASC_NODE": 234.5393, "ARG_OF_PERICENTER": 270.3112, "MEAN_ANOMALY": 87.8534, "EPHEMERIS_TYPE": 0, "CLASSIFICATION_TYPE": "U", "NORAD_CAT_ID": 4507, "ELEMENT_SET_NO": 999, "REV_AT_EPOCH": 72328, "BSTAR": 0.00013508, "MEAN_MOTION_DOT": 1.04e-06, "MEAN_MOTION_DDOT": 0}, "tle": {"line1": "1 04507U 70067A   25354.62269853  .00000104  00000+0  13508-3 0  9990", "line2": "2 04507  90.0051 234.5393 0170239 270.3112  87.8534 13.51316588723288"}}, "geometry": {"type": "Point", "coordinates": [54.54663322421385, 53.813874861317366]}}, {"type": "Feature", "properties": {"norad_id": 6909, "name": "NNSS 20 (TRANSIT 20)", "group": "nnss", "lat": 78.33293289815772, "lon": 74.22887355083856, "alt_km": 910.1520897704431, "timestamp": "2025-12-21T07:34:34.786238+00:00", "meta": {"OBJECT_NAME": "NNSS 20 (TRANSIT 20)", "OBJECT_ID": "1973-081A", "EPOCH": "2025-12-20T18:50:19.224672", "MEAN_MOTION": 13.71438181, "ECCENTRICITY": 0.01564007, "INCLINATION": 89.8562, "RA_OF_ASC_NODE": 254.9337, "ARG_OF_PERICENTER": 54.4896, "MEAN_ANOMALY": 307.0741, "EPHEMERIS_TYPE": 0, "CLASSIFICATION_TYPE": "U", "NORAD_CAT_ID": 6909, "ELEMENT_SET_NO": 999, "REV_AT_EPOCH": 80471, "BSTAR": 0.00023364641, "MEAN_MOTION_DOT": 2.41e-06, "MEAN_MOTION_DDOT": 0}, "tle": {"line1": "1 06909U 73081A   25354.78494473  .00000241  00000+0  23365-3 0  9996", "line2": "2 06909  89.8562 254.9337 0156400  54.4896 307.0741 13.71438181804718"}}, "geometry": {"type": "Point", "coordinates": [74.22887355083856, 78.33293289815772]}}, {"type": "Feature", "properties": {"norad_id": 10457, "name": "TRANSAT", "group": "nnss", "lat": 58.871713392698666, "lon": 78.87670312757052, "alt_km": 1075.84407434064, "timestamp": "2025-12-21T07:34:34.786248+00:00", "meta": {"OBJECT_NAME": "TRANSAT", "OBJECT_ID": "1977-106A", "EPOCH": "2025-12-20T04:51:30.137760", "MEAN_MOTION": 13.48944672, "ECCENTRICITY": 0.00261, "INCLINATION": 89.648, "RA_OF_ASC_NODE": 78.3329, "ARG_OF_PERICENTER": 168.1289, "MEAN_ANOMALY": 248.1407, "EPHEMERIS_TYPE": 0, "CLASSIFICATION_TYPE": "U", "NORAD_CAT_ID": 10457, "ELEMENT_SET_NO": 999, "REV_AT_EPOCH": 36844, "BSTAR": 0.00011685506, "MEAN_MOTION_DOT": 8.4e-07, "MEAN_MOTION_DDOT": 0}, "tle": {"line1": "1 10457U 77106A   25354.20243215  .00000084  00000+0  11686-3 0  9992", "line2": "2 10457  89.6480  78.3329 0026100 168.1289 248.1407 13.48944672368449"}}, "geometry": {"type": "Point", "coordinates": [78.87670312757052, 58.871713392698666]}}, {"type": "Feature", "properties": {"norad_id": 12458, "name": "NOVA 1", "group": "nnss", "lat": -69.53664526539292, "lon": -88.34100825146784, "alt_km": 1191.2430099834455, "timestamp": "2025-12-21T07:34:34.786258+00:00", "meta": {"OBJECT_NAME": "NOVA 1", "OBJECT_ID": "1981-044A", "EPOCH": "2025-12-20T18:13:37.876224", "MEAN_MOTION": 13.23279176, "ECCENTRICITY": 0.00158542, "INCLINATION": 89.8527, "RA_OF_ASC_NODE": 91.2719, "ARG_OF_PERICENTER": 84.2987, "MEAN_ANOMALY": 36.9916, "EPHEMERIS_TYPE": 0, "CLASSIFICATION_TYPE": "U", "NORAD_CAT_ID": 12458, "ELEMENT_SET_NO": 999, "REV_AT_EPOCH": 15292, "BSTAR": 8.1809343e-05, "MEAN_MOTION_DOT": 4.4e-07, "MEAN_MOTION_DDOT": 0}, "tle": {"line1": "1 12458U 81044A   25354.75946616  .00000044  00000+0  81809-4 0  9997", "line2": "2 12458  89.8527  91.2719 0015854  84.2987  36.9916 13.23279176152925"}}, "geometry": {"type": "Point", "coordinates": [-88.34100825146784, -69.53664526539292]}}, {"type": "Feature", "properties": {"norad_id": 15362, "name": "NOVA 3", "group": "nnss", "lat": 64.95762150884426, "lon": -99.10290535056623, "alt_km": 1188.9827536025214, "timestamp": "2025-12-21T07:34:34.786268+00:00", "meta": {"OBJECT_NAME": "NOVA 3", "OBJECT_ID": "1984-110A", "EPOCH": "2025-12-20T18:53:57.522048", "MEAN_MOTION": 13.23045473, "ECCENTRICITY": 0.0029997, "INCLINATION": 90.1221, "RA_OF_ASC_NODE": 80.6294, "ARG_OF_PERICENTER": 308.824, "MEAN_ANOMALY": 171.7165, "EPHEMERIS_TYPE": 0, "CLASSIFICATION_TYPE": "U", "NORAD_CAT_ID": 15362, "ELEMENT_SET_NO": 999, "REV_AT_EPOCH": 98805, "BSTAR": 0.00011296059, "MEAN_MOTION_DOT": 5.6e-07, "MEAN_MOTION_DDOT": 0}, "tle": {"line1": "1 15362U 84110A   25354.78747132  .00000056  00000+0  11296-3 0  9991", "line2": "2 15362  90.1221  80.6294 0029997 308.8240 171.7165 13.23045473988054"}}, "geometry": {"type": "Point", "coordinates": [-99.10290535056623, 64.95762150884426]}}, {"type": "Feature", "properties": {"norad_id": 15935, "name": "OSCAR 30", "group": "nnss", "lat": -57.6844815029657, "lon": -80.27443840081345, "alt_km": 1257.9151037252304, "timestamp": "2025-12-21T07:34:34.786277+00:00", "meta": {"OBJECT_NAME": "OSCAR 30", "OBJECT_ID": "1985-066A", "EPOCH": "2025-12-20T20:09:09.955584", "MEAN_MOTION": 13.36079432, "ECCENTRICITY": 0.01691709, "INCLINATION": 90.1655, "RA_OF_ASC_NODE": 99.9796, "ARG_OF_PERICENTER": 61.2952, "MEAN_ANOMALY": 48.1693, "EPHEMERIS_TYPE": 0, "CLASSIFICATION_TYPE": "U", "NORAD_CAT_ID": 15935, "ELEMENT_SET_NO": 999, "REV_AT_EPOCH": 96561, "BSTAR": 0.00010448209, "MEAN_MOTION_DOT": 6.8e-07, "MEAN_MOTION_DDOT": 0}, "tle": {"line1": "1 15935U 85066A   25354.83969856  .00000068  00000+0  10448-3 0  9994", "line2": "2 15935  90.1655  99.9796 0169170  61.2952  48.1693 13.36079432965615"}}, "geometry": {"type": "Point", "coordinates": [-80.27443840081345, -57.6844815029657]}}, {"type": "Feature", "properties": {"norad_id": 15936, "name": "OSCAR 24", "group": "nnss", "lat": -53.29625015383428, "lon": 92.69742548631602, "alt_km": 1192.972257520526, "timestamp": "2025-12-21T07:34:34.786287+00:00", "meta": {"OBJECT_NAME": "OSCAR 24", "OBJECT_ID": "1985-066B", "EPOCH": "2025-12-20T19:49:13.393344", "MEAN_MOTION": 13.35936837, "ECCENTRICITY": 0.01702835, "INCLINATION": 90.1791, "RA_OF_ASC_NODE": 92.4484, "ARG_OF_PERICENTER": 67.7638, "MEAN_ANOMALY": 46.3232, "EPHEMERIS_TYPE": 0, "CLASSIFICATION_TYPE": "U", "NORAD_CAT_ID": 15936, "ELEMENT_SET_NO": 999, "REV_AT_EPOCH": 96751, "BSTAR": 0.00010512997, "MEAN_MOTION_DOT": 6.8e-07, "MEAN_MOTION_DDOT": 0}, "tle": {"line1": "1 15936U 85066B   25354.82584946  .00000068  00000+0  10513-3 0  9990", "line2": "2 15936  90.1791  92.4484 0170283  67.7638  46.3232 13.35936837967518"}}, "geometry": {"type": "Point", "coordinates": [92.69742548631602, -53.29625015383428]}}]}